CSS (TIANHE)            
1 48274U 21035A   24270.17944973  .00069553  00000+0  74981-3 0  9994
2 48274  41.4670 187.3099 0004473  26.5299 333.5769 15.62712003194891
